{
  "type": "FeatureCollection",
  "features": [
    {
      "type": "Feature",
      "properties": {"name": "M1 Westgate / Princes Fwy", "tier": "major"},
      "geometry": {
        "type": "LineString",
        "coordinates": [
          [144.30, -38.16],
          [144.34, -38.13],
          [144.45, -37.98],
          [144.55, -37.92],
          [144.66, -37.88],
          [144.78, -37.85],
          [144.84, -37.85],
          [144.88, -37.84],
          [144.92, -37.83],
          [144.96, -37.82],
          [145.00, -37.81],
          [145.05, -37.82],
          [145.10, -37.85]
        ]
      }
    },
    {
      "type": "Feature",
      "properties": {"name": "Nepean Hwy", "tier": "major"},
      "geometry": {
        "type": "LineString",
        "coordinates": [
          [144.97, -37.85],
          [144.99, -37.91],
          [145.01, -37.97],
          [145.03, -38.02],
          [145.05, -38.07],
          [145.08, -38.12],
          [145.12, -38.16]
        ]
      }
    },
    {
      "type": "Feature",
      "properties": {"name": "Mornington Peninsula Fwy (M11)", "tier": "major"},
      "geometry": {
        "type": "LineString",
        "coordinates": [
          [145.13, -38.16],
          [145.10, -38.21],
          [145.04, -38.24],
          [144.96, -38.27],
          [144.88, -38.30],
          [144.80, -38.34],
          [144.72, -38.36]
        ]
      }
    },
    {
      "type": "Feature",
      "properties": {"name": "Princes Hwy West", "tier": "major"},
      "geometry": {
        "type": "LineString",
        "coordinates": [
          [144.34, -38.13],
          [144.30, -38.18],
          [144.28, -38.22]
        ]
      }
    },
    {
      "type": "Feature",
      "properties": {"name": "Bellarine Hwy", "tier": "minor"},
      "geometry": {
        "type": "LineString",
        "coordinates": [
          [144.36, -38.13],
          [144.42, -38.13],
          [144.50, -38.15],
          [144.56, -38.18],
          [144.61, -38.27]
        ]
      }
    },
    {
      "type": "Feature",
      "properties": {"name": "EastLink (M3)", "tier": "major"},
      "geometry": {
        "type": "LineString",
        "coordinates": [
          [145.15, -37.88],
          [145.18, -37.95],
          [145.20, -38.05],
          [145.20, -38.13],
          [145.15, -38.16]
        ]
      }
    },
    {
      "type": "Feature",
      "properties": {"name": "Western Ring Rd (M80)", "tier": "minor"},
      "geometry": {
        "type": "LineString",
        "coordinates": [
          [144.78, -37.85],
          [144.81, -37.79],
          [144.86, -37.74],
          [144.93, -37.71],
          [145.00, -37.69]
        ]
      }
    },
    {
      "type": "Feature",
      "properties": {"name": "Hume Hwy (M31)", "tier": "minor"},
      "geometry": {
        "type": "LineString",
        "coordinates": [
          [144.96, -37.82],
          [145.00, -37.78],
          [145.03, -37.74]
        ]
      }
    },
    {
      "type": "Feature",
      "properties": {"name": "Geelong Ring Rd", "tier": "minor"},
      "geometry": {
        "type": "LineString",
        "coordinates": [
          [144.30, -38.10],
          [144.34, -38.14],
          [144.38, -38.18],
          [144.36, -38.21]
        ]
      }
    },
    {
      "type": "Feature",
      "properties": {"name": "Surf Coast Hwy", "tier": "minor"},
      "geometry": {
        "type": "LineString",
        "coordinates": [
          [144.34, -38.20],
          [144.35, -38.27],
          [144.34, -38.34]
        ]
      }
    },
    {
      "type": "Feature",
      "properties": {"name": "Point Nepean Rd", "tier": "minor"},
      "geometry": {
        "type": "LineString",
        "coordinates": [
          [144.72, -38.36],
          [144.75, -38.34],
          [144.80, -38.34],
          [144.85, -38.34],
          [144.90, -38.32],
          [144.95, -38.30]
        ]
      }
    },
    {
      "type": "Feature",
      "properties": {"name": "Sunbury Rd", "tier": "minor"},
      "geometry": {
        "type": "LineString",
        "coordinates": [
          [144.86, -37.74],
          [144.83, -37.70],
          [144.78, -37.66]
        ]
      }
    }
  ]
}
