{
  "type": "FeatureCollection",
  "features": [
    {
      "type": "Feature",
      "properties": {"name": "Port Phillip Bay"},
      "geometry": {
        "type": "Polygon",
        "coordinates": [[
          [144.84, -37.84],
          [144.91, -37.84],
          [144.98, -37.84],
          [145.00, -37.86],
          [145.03, -37.91],
          [145.04, -37.97],
          [145.06, -38.03],
          [145.08, -38.10],
          [145.13, -38.14],
          [145.13, -38.16],
          [145.10, -38.20],
          [145.05, -38.23],
          [144.95, -38.27],
          [144.83, -38.30],
          [144.74, -38.31],
          [144.68, -38.34],
          [144.65, -38.36],
          [144.60, -38.30],
          [144.55, -38.18],
          [144.46, -38.12],
          [144.40, -38.10],
          [144.36, -38.10],
          [144.40, -38.04],
          [144.55, -37.97],
          [144.70, -37.91],
          [144.80, -37.86],
          [144.84, -37.84]
        ]]
      }
    },
    {
      "type": "Feature",
      "properties": {"name": "Bass Strait"},
      "geometry": {
        "type": "Polygon",
        "coordinates": [[
          [144.20, -38.36],
          [145.30, -38.36],
          [145.30, -38.60],
          [144.20, -38.60],
          [144.20, -38.36]
        ]]
      }
    }
  ]
}
